ONEWEB-0564             
1 55801U 23029F   25230.56202820 -.00000013  00000+0 -64966-4 0  9992
2 55801  87.9290 334.7848 0002222 106.8992 253.2385 13.20772986121205
ONEWEB-0638             
1 55802U 23029G   25230.59651979 -.00000182  00000+0 -52614-3 0  9992
2 55802  87.9093 349.9916 0002364  96.8238 263.3160 13.14503907119645
ONEWEB-0639             
1 55803U 23029H   25230.37127279  .00000076  00000+0  15870-3 0  9993
2 55803  87.9260   5.1850 0001736  59.0427 301.0877 13.19725616118960
ONEWEB-0640             
1 55804U 23029J   25230.60603560 -.00000017  00000+0 -79390-4 0  9997
2 55804  87.9086 349.9762 0002414  86.4740 273.6666 13.14501578119666
ONEWEB-0641             
1 55805U 23029K   25230.44235163  .00000004  00000+0 -22042-4 0  9997
2 55805  87.9265   5.1426 0001730  90.7173 269.4158 13.19725598118980
ONEWEB-0642             
1 55806U 23029L   25230.43760920  .00000003  00000+0 -25181-4 0  9997
2 55806  87.9257   5.1797 0001396  66.4360 293.6919 13.19726518118975
ONEWEB-0643             
1 55807U 23029M   25230.57591006  .00004807  00000+0  12929-1 0  9998
2 55807  87.9091 349.9650 0000825  99.5375 260.5848 13.14479252119631
ONEWEB-0644             
1 55808U 23029N   25230.35704865  .00000024  00000+0  27283-4 0  9993
2 55808  87.9264   5.2023 0001519  81.5753 278.5551 13.19726710118966
ONEWEB-0645             
1 55809U 23029P   25230.35311364 -.00000046  00000+0 -14691-3 0  9996
2 55809  87.9248   5.1922 0001978  88.3680 271.7679 13.19725319118969
ONEWEB-0646             
1 55810U 23029Q   25230.38674498  .00000128  00000+0  28903-3 0  9991
2 55810  87.9249   5.1785 0001620  92.8704 267.2613 13.19254851118955
ONEWEB-0648             
1 55811U 23029R   25230.39197258  .00000187  00000+0  47080-3 0  9999
2 55811  87.9077 349.9755 0001900  68.5464 291.5868 13.14503702119618
ONEWEB-0649             
1 55812U 23029S   25230.42182270  .00000093  00000+0  20085-3 0  9994
2 55812  87.9259   5.1652 0001796  81.6763 278.4573 13.19725040118992
ONEWEB-0650             
1 55813U 23029T   25230.41708482  .00000064  00000+0  12716-3 0  9993
2 55813  87.9258   5.1772 0001708  91.7811 268.3517 13.19724739118961
ONEWEB-0652             
1 55814U 23029U   25230.60127535 -.00000094  00000+0 -28716-3 0  9991
2 55814  87.9087 349.9462 0001920 103.3903 256.7440 13.14502201119617
ONEWEB-0653             
1 55815U 23029V   25230.58542934 -.00000135  00000+0 -39812-3 0  9998
2 55815  87.9088 349.9384 0002065  99.6495 260.4868 13.14503042119649
ONEWEB-0654             
1 55816U 23029W   25230.58066298 -.00000090  00000+0 -27814-3 0  9992
2 55816  87.9085 349.9379 0002100 107.8467 252.2892 13.14503595119663
ONEWEB-0656             
1 55817U 23029X   25230.55570459 -.00000020  00000+0 -80140-4 0  9994
2 55817  87.9306 334.7315 0002359 108.6021 251.5369 13.20773271121204
