[{"OBJECT_NAME":"ONEWEB-0564","OBJECT_ID":"2023-029F","EPOCH":"2025-08-18T13:29:19.236480","MEAN_MOTION":13.20772986,"ECCENTRICITY":0.0002222,"INCLINATION":87.929,"RA_OF_ASC_NODE":334.7848,"ARG_OF_PERICENTER":106.8992,"MEAN_ANOMALY":253.2385,"EPHEMERIS_TYPE":0,"CLASSIFICATION_TYPE":"U","NORAD_CAT_ID":55801,"ELEMENT_SET_NO":999,"REV_AT_EPOCH":12120,"BSTAR":-6.4966e-5,"MEAN_MOTION_DOT":-1.3e-7,"MEAN_MOTION_DDOT":0},{"OBJECT_NAME":"ONEWEB-0638","OBJECT_ID":"2023-029G","EPOCH":"2025-08-18T14:18:59.309856","MEAN_MOTION":13.14503907,"ECCENTRICITY":0.0002364,"INCLINATION":87.9093,"RA_OF_ASC_NODE":349.9916,"ARG_OF_PERICENTER":96.8238,"MEAN_ANOMALY":263.316,"EPHEMERIS_TYPE":0,"CLASSIFICATION_TYPE":"U","NORAD_CAT_ID":55802,"ELEMENT_SET_NO":999,"REV_AT_EPOCH":11964,"BSTAR":-0.00052614,"MEAN_MOTION_DOT":-1.82e-6,"MEAN_MOTION_DDOT":0},{"OBJECT_NAME":"ONEWEB-0639","OBJECT_ID":"2023-029H","EPOCH":"2025-08-18T08:54:37.969056","MEAN_MOTION":13.19725616,"ECCENTRICITY":0.0001736,"INCLINATION":87.926,"RA_OF_ASC_NODE":5.185,"ARG_OF_PERICENTER":59.0427,"MEAN_ANOMALY":301.0877,"EPHEMERIS_TYPE":0,"CLASSIFICATION_TYPE":"U","NORAD_CAT_ID":55803,"ELEMENT_SET_NO":999,"REV_AT_EPOCH":11896,"BSTAR":0.0001587,"MEAN_MOTION_DOT":7.6e-7,"MEAN_MOTION_DDOT":0},{"OBJECT_NAME":"ONEWEB-0640","OBJECT_ID":"2023-029J","EPOCH":"2025-08-18T14:32:41.475840","MEAN_MOTION":13.14501578,"ECCENTRICITY":0.0002414,"INCLINATION":87.9086,"RA_OF_ASC_NODE":349.9762,"ARG_OF_PERICENTER":86.474,"MEAN_ANOMALY":273.6666,"EPHEMERIS_TYPE":0,"CLASSIFICATION_TYPE":"U","NORAD_CAT_ID":55804,"ELEMENT_SET_NO":999,"REV_AT_EPOCH":11966,"BSTAR":-7.939e-5,"MEAN_MOTION_DOT":-1.7e-7,"MEAN_MOTION_DDOT":0},{"OBJECT_NAME":"ONEWEB-0641","OBJECT_ID":"2023-029K","EPOCH":"2025-08-18T10:36:59.180832","MEAN_MOTION":13.19725598,"ECCENTRICITY":0.000173,"INCLINATION":87.9265,"RA_OF_ASC_NODE":5.1426,"ARG_OF_PERICENTER":90.7173,"MEAN_ANOMALY":269.4158,"EPHEMERIS_TYPE":0,"CLASSIFICATION_TYPE":"U","NORAD_CAT_ID":55805,"ELEMENT_SET_NO":999,"REV_AT_EPOCH":11898,"BSTAR":-2.2042e-5,"MEAN_MOTION_DOT":4.0e-8,"MEAN_MOTION_DDOT":0},{"OBJECT_NAME":"ONEWEB-0642","OBJECT_ID":"2023-029L","EPOCH":"2025-08-18T10:30:09.434880","MEAN_MOTION":13.19726518,"ECCENTRICITY":0.0001396,"INCLINATION":87.9257,"RA_OF_ASC_NODE":5.1797,"ARG_OF_PERICENTER":66.436,"MEAN_ANOMALY":293.6919,"EPHEMERIS_TYPE":0,"CLASSIFICATION_TYPE":"U","NORAD_CAT_ID":55806,"ELEMENT_SET_NO":999,"REV_AT_EPOCH":11897,"BSTAR":-2.5181e-5,"MEAN_MOTION_DOT":3.0e-8,"MEAN_MOTION_DDOT":0},{"OBJECT_NAME":"ONEWEB-0643","OBJECT_ID":"2023-029M","EPOCH":"2025-08-18T13:49:18.629184","MEAN_MOTION":13.14479252,"ECCENTRICITY":8.25e-5,"INCLINATION":87.9091,"RA_OF_ASC_NODE":349.965,"ARG_OF_PERICENTER":99.5375,"MEAN_ANOMALY":260.5848,"EPHEMERIS_TYPE":0,"CLASSIFICATION_TYPE":"U","NORAD_CAT_ID":55807,"ELEMENT_SET_NO":999,"REV_AT_EPOCH":11963,"BSTAR":0.012929,"MEAN_MOTION_DOT":4.807e-5,"MEAN_MOTION_DDOT":0},{"OBJECT_NAME":"ONEWEB-0644","OBJECT_ID":"2023-029N","EPOCH":"2025-08-18T08:34:09.003360","MEAN_MOTION":13.1972671,"ECCENTRICITY":0.0001519,"INCLINATION":87.9264,"RA_OF_ASC_NODE":5.2023,"ARG_OF_PERICENTER":81.5753,"MEAN_ANOMALY":278.5551,"EPHEMERIS_TYPE":0,"CLASSIFICATION_TYPE":"U","NORAD_CAT_ID":55808,"ELEMENT_SET_NO":999,"REV_AT_EPOCH":11896,"BSTAR":2.7283e-5,"MEAN_MOTION_DOT":2.4e-7,"MEAN_MOTION_DDOT":0},{"OBJECT_NAME":"ONEWEB-0645","OBJECT_ID":"2023-029P","EPOCH":"2025-08-18T08:28:29.018496","MEAN_MOTION":13.19725319,"ECCENTRICITY":0.0001978,"INCLINATION":87.9248,"RA_OF_ASC_NODE":5.1922,"ARG_OF_PERICENTER":88.368,"MEAN_ANOMALY":271.7679,"EPHEMERIS_TYPE":0,"CLASSIFICATION_TYPE":"U","NORAD_CAT_ID":55809,"ELEMENT_SET_NO":999,"REV_AT_EPOCH":11896,"BSTAR":-0.00014691,"MEAN_MOTION_DOT":-4.6e-7,"MEAN_MOTION_DDOT":0},{"OBJECT_NAME":"ONEWEB-0646","OBJECT_ID":"2023-029Q","EPOCH":"2025-08-18T09:16:54.766272","MEAN_MOTION":13.19254851,"ECCENTRICITY":0.000162,"INCLINATION":87.9249,"RA_OF_ASC_NODE":5.1785,"ARG_OF_PERICENTER":92.8704,"MEAN_ANOMALY":267.2613,"EPHEMERIS_TYPE":0,"CLASSIFICATION_TYPE":"U","NORAD_CAT_ID":55810,"ELEMENT_SET_NO":999,"REV_AT_EPOCH":11895,"BSTAR":0.00028903,"MEAN_MOTION_DOT":1.28e-6,"MEAN_MOTION_DDOT":0},{"OBJECT_NAME":"ONEWEB-0648","OBJECT_ID":"2023-029R","EPOCH":"2025-08-18T09:24:26.430912","MEAN_MOTION":13.14503702,"ECCENTRICITY":0.00019,"INCLINATION":87.9077,"RA_OF_ASC_NODE":349.9755,"ARG_OF_PERICENTER":68.5464,"MEAN_ANOMALY":291.5868,"EPHEMERIS_TYPE":0,"CLASSIFICATION_TYPE":"U","NORAD_CAT_ID":55811,"ELEMENT_SET_NO":999,"REV_AT_EPOCH":11961,"BSTAR":0.0004708,"MEAN_MOTION_DOT":1.87e-6,"MEAN_MOTION_DDOT":0},{"OBJECT_NAME":"ONEWEB-0649","OBJECT_ID":"2023-029S","EPOCH":"2025-08-18T10:07:25.481280","MEAN_MOTION":13.1972504,"ECCENTRICITY":0.0001796,"INCLINATION":87.9259,"RA_OF_ASC_NODE":5.1652,"ARG_OF_PERICENTER":81.6763,"MEAN_ANOMALY":278.4573,"EPHEMERIS_TYPE":0,"CLASSIFICATION_TYPE":"U","NORAD_CAT_ID":55812,"ELEMENT_SET_NO":999,"REV_AT_EPOCH":11899,"BSTAR":0.00020085,"MEAN_MOTION_DOT":9.3e-7,"MEAN_MOTION_DDOT":0},{"OBJECT_NAME":"ONEWEB-0650","OBJECT_ID":"2023-029T","EPOCH":"2025-08-18T10:00:36.128448","MEAN_MOTION":13.19724739,"ECCENTRICITY":0.0001708,"INCLINATION":87.9258,"RA_OF_ASC_NODE":5.1772,"ARG_OF_PERICENTER":91.7811,"MEAN_ANOMALY":268.3517,"EPHEMERIS_TYPE":0,"CLASSIFICATION_TYPE":"U","NORAD_CAT_ID":55813,"ELEMENT_SET_NO":999,"REV_AT_EPOCH":11896,"BSTAR":0.00012716,"MEAN_MOTION_DOT":6.4e-7,"MEAN_MOTION_DDOT":0},{"OBJECT_NAME":"ONEWEB-0652","OBJECT_ID":"2023-029U","EPOCH":"2025-08-18T14:25:50.190240","MEAN_MOTION":13.14502201,"ECCENTRICITY":0.000192,"INCLINATION":87.9087,"RA_OF_ASC_NODE":349.9462,"ARG_OF_PERICENTER":103.3903,"MEAN_ANOMALY":256.744,"EPHEMERIS_TYPE":0,"CLASSIFICATION_TYPE":"U","NORAD_CAT_ID":55814,"ELEMENT_SET_NO":999,"REV_AT_EPOCH":11961,"BSTAR":-0.00028716,"MEAN_MOTION_DOT":-9.4e-7,"MEAN_MOTION_DDOT":0},{"OBJECT_NAME":"ONEWEB-0653","OBJECT_ID":"2023-029V","EPOCH":"2025-08-18T14:03:01.094976","MEAN_MOTION":13.14503042,"ECCENTRICITY":0.0002065,"INCLINATION":87.9088,"RA_OF_ASC_NODE":349.9384,"ARG_OF_PERICENTER":99.6495,"MEAN_ANOMALY":260.4868,"EPHEMERIS_TYPE":0,"CLASSIFICATION_TYPE":"U","NORAD_CAT_ID":55815,"ELEMENT_SET_NO":999,"REV_AT_EPOCH":11964,"BSTAR":-0.00039812,"MEAN_MOTION_DOT":-1.35e-6,"MEAN_MOTION_DDOT":0},{"OBJECT_NAME":"ONEWEB-0654","OBJECT_ID":"2023-029W","EPOCH":"2025-08-18T13:56:09.281472","MEAN_MOTION":13.14503595,"ECCENTRICITY":0.00021,"INCLINATION":87.9085,"RA_OF_ASC_NODE":349.9379,"ARG_OF_PERICENTER":107.8467,"MEAN_ANOMALY":252.2892,"EPHEMERIS_TYPE":0,"CLASSIFICATION_TYPE":"U","NORAD_CAT_ID":55816,"ELEMENT_SET_NO":999,"REV_AT_EPOCH":11966,"BSTAR":-0.00027814,"MEAN_MOTION_DOT":-9.0e-7,"MEAN_MOTION_DDOT":0},{"OBJECT_NAME":"ONEWEB-0656","OBJECT_ID":"2023-029X","EPOCH":"2025-08-18T13:20:12.876576","MEAN_MOTION":13.20773271,"ECCENTRICITY":0.0002359,"INCLINATION":87.9306,"RA_OF_ASC_NODE":334.7315,"ARG_OF_PERICENTER":108.6021,"MEAN_ANOMALY":251.5369,"EPHEMERIS_TYPE":0,"CLASSIFICATION_TYPE":"U","NORAD_CAT_ID":55817,"ELEMENT_SET_NO":999,"REV_AT_EPOCH":12120,"BSTAR":-8.014e-5,"MEAN_MOTION_DOT":-2.0e-7,"MEAN_MOTION_DDOT":0}]
